[{"OBJECT_NAME":"STARLINK-3054","OBJECT_ID":"2021-082AP","EPOCH":"2026-03-09T22:20:32.440992","MEAN_MOTION":14.98330582,"ECCENTRICITY":0.00026696,"INCLINATION":69.999,"RA_OF_ASC_NODE":293.8403,"ARG_OF_PERICENTER":269.1801,"MEAN_ANOMALY":90.9052,"EPHEMERIS_TYPE":0,"CLASSIFICATION_TYPE":"U","NORAD_CAT_ID":49167,"ELEMENT_SET_NO":999,"REV_AT_EPOCH":24721,"BSTAR":-2.0115793e-5,"MEAN_MOTION_DOT":-3.33e-6,"MEAN_MOTION_DDOT":0},{"OBJECT_NAME":"DMSP 5D-2 F13 DEB","OBJECT_ID":"1995-015HF","EPOCH":"2026-03-08T15:33:20.356128","MEAN_MOTION":15.01113693,"ECCENTRICITY":0.00168904,"INCLINATION":98.8624,"RA_OF_ASC_NODE":112.9575,"ARG_OF_PERICENTER":188.2899,"MEAN_ANOMALY":171.8045,"EPHEMERIS_TYPE":0,"CLASSIFICATION_TYPE":"U","NORAD_CAT_ID":42289,"ELEMENT_SET_NO":999,"REV_AT_EPOCH":56056,"BSTAR":0.014483506,"MEAN_MOTION_DOT":0.00190863,"MEAN_MOTION_DDOT":0}]
